<map id="Tle::ToString" name="Tle::ToString">
<area shape="rect" id="node2" href="$class_tle.html#a1f9b502465c4433473ba579cede295b4" title="Tle::NoradNumber" alt="" coords="171,5,301,32"/>
<area shape="rect" id="node3" href="$class_tle.html#ab0433c43a3597be923b8b6d48fdb9cd6" title="Tle::IntDesignator" alt="" coords="173,56,299,83"/>
<area shape="rect" id="node4" href="$class_tle.html#af41fa17d78a04d40a5dc9c946b64e9e9" title="Tle::Epoch" alt="" coords="193,107,279,133"/>
<area shape="rect" id="node5" href="$class_tle.html#a9577f18b83ee8fc2e42764d09f8ba18b" title="Tle::OrbitNumber" alt="" coords="175,157,297,184"/>
<area shape="rect" id="node6" href="$class_tle.html#ab836071bbee16e99ab85b00c69799113" title="Tle::MeanMotionDt2" alt="" coords="166,208,306,235"/>
<area shape="rect" id="node7" href="$class_tle.html#a26f24dec7b3c7d37f5fbc7873a12889c" title="Tle::MeanMotionDdt6" alt="" coords="163,259,309,285"/>
<area shape="rect" id="node8" href="$class_tle.html#a9aa94825e4023fb3f7625b227a432d5b" title="Tle::Eccentricity" alt="" coords="177,309,295,336"/>
<area shape="rect" id="node9" href="$class_tle.html#a3547f03cfb1e22dbcc6ae437d2cdea4a" title="Tle::BStar" alt="" coords="195,360,277,387"/>
<area shape="rect" id="node10" href="$class_tle.html#aa12d7e2d8841c2356f94c59954ee8f97" title="Tle::Inclination" alt="" coords="183,411,289,437"/>
<area shape="rect" id="node12" href="$class_tle.html#aaba80937372c308113669c223d429da8" title="Tle::RightAscendingNode" alt="" coords="151,461,321,488"/>
<area shape="rect" id="node13" href="$class_tle.html#a626fe801f766dc1c8cd8b56817cb6eac" title="Tle::ArgumentPerigee" alt="" coords="162,512,310,539"/>
<area shape="rect" id="node14" href="$class_tle.html#ad33689d253722c3b53a2cbb25a1c757d" title="Tle::MeanAnomaly" alt="" coords="171,563,301,589"/>
<area shape="rect" id="node15" href="$class_tle.html#a743db40b0b12a76b121680f13696bc10" title="Tle::MeanMotion" alt="" coords="177,613,295,640"/>
<area shape="rect" id="node16" href="$class_tle.html#a7281f5cb7acd87f979d3f9dbcd7afb86" title="Tle::Initialize" alt="" coords="188,664,284,691"/>
<area shape="rect" id="node17" href="$class_tle.html#af863283aeadd6d0bdb91501832274699" title="Tle::IsValidLineLength" alt="" coords="161,715,311,741"/>
<area shape="rect" id="node18" href="$class_tle.html#aea14c7e1c0516d31cab025afa85804c9" title="Tle::ExtractInteger" alt="" coords="171,765,301,792"/>
<area shape="rect" id="node19" href="$class_tle.html#a6611fe24e9a1146e86b45ad74ecf183c" title="Tle::ExtractDouble" alt="" coords="171,816,301,843"/>
<area shape="rect" id="node20" href="$class_tle.html#af793c174be9e1f816666387298e94de9" title="Tle::ExtractExponential" alt="" coords="157,867,315,893"/>
<area shape="rect" id="node11" href="$namespace_util.html#a921852e3e1fcb70a23df5d708d6b9a9e" title="Util::DegreesToRadians" alt="" coords="369,487,532,513"/>
</map>
